SL-16 R/B               
1 24298U 96051B   25302.86211476 -.00000070  00000+0 -10934-4 0  9992
2 24298  70.7583  92.1534 0017176 317.7575  42.2220 14.12392425503179
ORBVIEW 2 (SEASTAR)     
1 24883U 97037A   25302.93016127  .00000479  00000+0  18324-3 0  9992
2 24883  98.8439  98.9092 0003242  88.4065 271.7491 14.35366564489710
SL-16 R/B               
1 25400U 98043G   25302.87511841  .00000133  00000+0  74427-4 0  9996
2 25400  98.8045 250.4647 0010560  38.7897 321.4039 14.26008720420344
SL-16 R/B               
1 25407U 98045B   25302.83029662  .00000307  00000+0  17943-3 0  9998
2 25407  71.0092  96.7633 0009145 234.6054 125.4216 14.16163518408577
ISS (ZARYA)             
1 25544U 98067A   25302.61851704  .00015001  00000+0  27421-3 0  9999
2 25544  51.6346   0.9133 0004811 353.9136   6.1794 15.49585556536012
CZ-4B R/B               
1 25732U 99025C   25302.88905172  .00000112  00000+0  74824-4 0  9998
2 25732  98.6837 345.1349 0037113   2.7986 170.0093 14.18227382369622
OKEAN-O                 
1 25860U 99039A   25302.91468488  .00000960  00000+0  13369-3 0  9990
2 25860  97.9666 358.9833 0001813  77.7395 282.4020 14.80049422415042
SL-16 R/B               
1 25861U 99039B   25302.88460621  .00000829  00000+0  11252-3 0  9991
2 25861  98.0190 357.0195 0014035 326.3311  33.7008 14.81491408417499
DELTA 2 R/B             
1 25876U 99041E   25302.87765415  .00000788  00000+0  16573-3 0  9993
2 25876  51.7628 103.5068 0504594 322.4927  34.1772 14.11249873344553
HELIOS 1B               
1 25977U 99064A   25302.59801486  .00002785  00000+0  31734-3 0  9993
2 25977  98.1756 195.9622 0002397 102.7359 257.4125 14.87009590665770
TERRA                   
1 25994U 99068A   25302.92088319  .00000674  00000+0  14698-3 0  9990
2 25994  97.9813 356.1978 0001384 204.4165 328.3673 14.60875274375983
SL-16 R/B               
1 26070U 00006B   25302.59986914  .00000313  00000+0  18317-3 0  9993
2 26070  71.0044  13.4678 0015913  13.5006 346.6540 14.15795977330005
