CCSDS_OMM_VERS = 2.0
CREATION_DATE  = 
ORIGINATOR     = 

OBJECT_NAME    = SL-16 R/B
OBJECT_ID      = 1996-051B
CENTER_NAME    = EARTH
REF_FRAME      = TEME
TIME_SYSTEM    = UTC
MEAN_ELEMENT_THEORY = SGP/SGP4

EPOCH          = 2025-10-29T20:41:26.715264
MEAN_MOTION    = 14.12392425
ECCENTRICITY   = .00171768
INCLINATION    = 70.7583
RA_OF_ASC_NODE = 92.1534
ARG_OF_PERICENTER = 317.7575
MEAN_ANOMALY   = 42.2220

EPHEMERIS_TYPE = 0
CLASSIFICATION_TYPE = U
NORAD_CAT_ID   = 24298
ELEMENT_SET_NO = 999
REV_AT_EPOCH   = 50317
BSTAR          = -.10934093E-4
MEAN_MOTION_DOT = -.7E-6
MEAN_MOTION_DDOT = 0

CCSDS_OMM_VERS = 2.0
CREATION_DATE  = 
ORIGINATOR     = 

OBJECT_NAME    = ORBVIEW 2 (SEASTAR)
OBJECT_ID      = 1997-037A
CENTER_NAME    = EARTH
REF_FRAME      = TEME
TIME_SYSTEM    = UTC
MEAN_ELEMENT_THEORY = SGP/SGP4

EPOCH          = 2025-10-29T22:19:25.933728
MEAN_MOTION    = 14.35366564
ECCENTRICITY   = .00032422
INCLINATION    = 98.8439
RA_OF_ASC_NODE = 98.9092
ARG_OF_PERICENTER = 88.4065
MEAN_ANOMALY   = 271.7491

EPHEMERIS_TYPE = 0
CLASSIFICATION_TYPE = U
NORAD_CAT_ID   = 24883
ELEMENT_SET_NO = 999
REV_AT_EPOCH   = 48971
BSTAR          = .18324318E-3
MEAN_MOTION_DOT = .479E-5
MEAN_MOTION_DDOT = 0

CCSDS_OMM_VERS = 2.0
CREATION_DATE  = 
ORIGINATOR     = 

OBJECT_NAME    = SL-16 R/B
OBJECT_ID      = 1998-043G
CENTER_NAME    = EARTH
REF_FRAME      = TEME
TIME_SYSTEM    = UTC
MEAN_ELEMENT_THEORY = SGP/SGP4

EPOCH          = 2025-10-29T21:00:10.230624
MEAN_MOTION    = 14.26008720
ECCENTRICITY   = .00105607
INCLINATION    = 98.8045
RA_OF_ASC_NODE = 250.4647
ARG_OF_PERICENTER = 38.7897
MEAN_ANOMALY   = 321.4039

EPHEMERIS_TYPE = 0
CLASSIFICATION_TYPE = U
NORAD_CAT_ID   = 25400
ELEMENT_SET_NO = 999
REV_AT_EPOCH   = 42034
BSTAR          = .74426635E-4
MEAN_MOTION_DOT = .133E-5
MEAN_MOTION_DDOT = 0

CCSDS_OMM_VERS = 2.0
CREATION_DATE  = 
ORIGINATOR     = 

OBJECT_NAME    = SL-16 R/B
OBJECT_ID      = 1998-045B
CENTER_NAME    = EARTH
REF_FRAME      = TEME
TIME_SYSTEM    = UTC
MEAN_ELEMENT_THEORY = SGP/SGP4

EPOCH          = 2025-10-29T19:55:37.627968
MEAN_MOTION    = 14.16163518
ECCENTRICITY   = .0009145
INCLINATION    = 71.0092
RA_OF_ASC_NODE = 96.7633
ARG_OF_PERICENTER = 234.6054
MEAN_ANOMALY   = 125.4216

EPHEMERIS_TYPE = 0
CLASSIFICATION_TYPE = U
NORAD_CAT_ID   = 25407
ELEMENT_SET_NO = 999
REV_AT_EPOCH   = 40857
BSTAR          = .17942725E-3
MEAN_MOTION_DOT = .307E-5
MEAN_MOTION_DDOT = 0

CCSDS_OMM_VERS = 2.0
CREATION_DATE  = 
ORIGINATOR     = 

OBJECT_NAME    = ISS (ZARYA)
OBJECT_ID      = 1998-067A
CENTER_NAME    = EARTH
REF_FRAME      = TEME
TIME_SYSTEM    = UTC
MEAN_ELEMENT_THEORY = SGP/SGP4

EPOCH          = 2025-10-29T14:50:39.872256
MEAN_MOTION    = 15.49585556
ECCENTRICITY   = .00048115
INCLINATION    = 51.6346
RA_OF_ASC_NODE = 0.9133
ARG_OF_PERICENTER = 353.9136
MEAN_ANOMALY   = 6.1794

EPHEMERIS_TYPE = 0
CLASSIFICATION_TYPE = U
NORAD_CAT_ID   = 25544
ELEMENT_SET_NO = 999
REV_AT_EPOCH   = 53601
BSTAR          = .27420557E-3
MEAN_MOTION_DOT = .15001E-3
MEAN_MOTION_DDOT = 0

CCSDS_OMM_VERS = 2.0
CREATION_DATE  = 
ORIGINATOR     = 

OBJECT_NAME    = CZ-4B R/B
OBJECT_ID      = 1999-025C
CENTER_NAME    = EARTH
REF_FRAME      = TEME
TIME_SYSTEM    = UTC
MEAN_ELEMENT_THEORY = SGP/SGP4

EPOCH          = 2025-10-29T21:20:14.068608
MEAN_MOTION    = 14.18227382
ECCENTRICITY   = .00371138
INCLINATION    = 98.6837
RA_OF_ASC_NODE = 345.1349
ARG_OF_PERICENTER = 2.7986
MEAN_ANOMALY   = 170.0093

EPHEMERIS_TYPE = 0
CLASSIFICATION_TYPE = U
NORAD_CAT_ID   = 25732
ELEMENT_SET_NO = 999
REV_AT_EPOCH   = 36962
BSTAR          = .74824316E-4
MEAN_MOTION_DOT = .112E-5
MEAN_MOTION_DDOT = 0

CCSDS_OMM_VERS = 2.0
CREATION_DATE  = 
ORIGINATOR     = 

OBJECT_NAME    = OKEAN-O
OBJECT_ID      = 1999-039A
CENTER_NAME    = EARTH
REF_FRAME      = TEME
TIME_SYSTEM    = UTC
MEAN_ELEMENT_THEORY = SGP/SGP4

EPOCH          = 2025-10-29T21:57:08.773632
MEAN_MOTION    = 14.80049422
ECCENTRICITY   = .00018135
INCLINATION    = 97.9666
RA_OF_ASC_NODE = 358.9833
ARG_OF_PERICENTER = 77.7395
MEAN_ANOMALY   = 282.4020

EPHEMERIS_TYPE = 0
CLASSIFICATION_TYPE = U
NORAD_CAT_ID   = 25860
ELEMENT_SET_NO = 999
REV_AT_EPOCH   = 41504
BSTAR          = .13369352E-3
MEAN_MOTION_DOT = .96E-5
MEAN_MOTION_DDOT = 0

CCSDS_OMM_VERS = 2.0
CREATION_DATE  = 
ORIGINATOR     = 

OBJECT_NAME    = SL-16 R/B
OBJECT_ID      = 1999-039B
CENTER_NAME    = EARTH
REF_FRAME      = TEME
TIME_SYSTEM    = UTC
MEAN_ELEMENT_THEORY = SGP/SGP4

EPOCH          = 2025-10-29T21:13:49.976544
MEAN_MOTION    = 14.81491408
ECCENTRICITY   = .00140351
INCLINATION    = 98.0190
RA_OF_ASC_NODE = 357.0195
ARG_OF_PERICENTER = 326.3311
MEAN_ANOMALY   = 33.7008

EPHEMERIS_TYPE = 0
CLASSIFICATION_TYPE = U
NORAD_CAT_ID   = 25861
ELEMENT_SET_NO = 999
REV_AT_EPOCH   = 41749
BSTAR          = .11252144E-3
MEAN_MOTION_DOT = .829E-5
MEAN_MOTION_DDOT = 0

CCSDS_OMM_VERS = 2.0
CREATION_DATE  = 
ORIGINATOR     = 

OBJECT_NAME    = DELTA 2 R/B
OBJECT_ID      = 1999-041E
CENTER_NAME    = EARTH
REF_FRAME      = TEME
TIME_SYSTEM    = UTC
MEAN_ELEMENT_THEORY = SGP/SGP4

EPOCH          = 2025-10-29T21:03:49.318560
MEAN_MOTION    = 14.11249873
ECCENTRICITY   = .05045946
INCLINATION    = 51.7628
RA_OF_ASC_NODE = 103.5068
ARG_OF_PERICENTER = 322.4927
MEAN_ANOMALY   = 34.1772

EPHEMERIS_TYPE = 0
CLASSIFICATION_TYPE = U
NORAD_CAT_ID   = 25876
ELEMENT_SET_NO = 999
REV_AT_EPOCH   = 34455
BSTAR          = .16573457E-3
MEAN_MOTION_DOT = .788E-5
MEAN_MOTION_DDOT = 0

CCSDS_OMM_VERS = 2.0
CREATION_DATE  = 
ORIGINATOR     = 

OBJECT_NAME    = HELIOS 1B
OBJECT_ID      = 1999-064A
CENTER_NAME    = EARTH
REF_FRAME      = TEME
TIME_SYSTEM    = UTC
MEAN_ELEMENT_THEORY = SGP/SGP4

EPOCH          = 2025-10-29T14:21:08.483904
MEAN_MOTION    = 14.87009590
ECCENTRICITY   = .00023973
INCLINATION    = 98.1756
RA_OF_ASC_NODE = 195.9622
ARG_OF_PERICENTER = 102.7359
MEAN_ANOMALY   = 257.4125

EPHEMERIS_TYPE = 0
CLASSIFICATION_TYPE = U
NORAD_CAT_ID   = 25977
ELEMENT_SET_NO = 999
REV_AT_EPOCH   = 66577
BSTAR          = .31734344E-3
MEAN_MOTION_DOT = .2785E-4
MEAN_MOTION_DDOT = 0

CCSDS_OMM_VERS = 2.0
CREATION_DATE  = 
ORIGINATOR     = 

OBJECT_NAME    = TERRA
OBJECT_ID      = 1999-068A
CENTER_NAME    = EARTH
REF_FRAME      = TEME
TIME_SYSTEM    = UTC
MEAN_ELEMENT_THEORY = SGP/SGP4

EPOCH          = 2025-10-29T22:06:04.307616
MEAN_MOTION    = 14.60875274
ECCENTRICITY   = .00013848
INCLINATION    = 97.9813
RA_OF_ASC_NODE = 356.1978
ARG_OF_PERICENTER = 204.4165
MEAN_ANOMALY   = 328.3673

EPHEMERIS_TYPE = 0
CLASSIFICATION_TYPE = U
NORAD_CAT_ID   = 25994
ELEMENT_SET_NO = 999
REV_AT_EPOCH   = 37598
BSTAR          = .14698456E-3
MEAN_MOTION_DOT = .674E-5
MEAN_MOTION_DDOT = 0

CCSDS_OMM_VERS = 2.0
CREATION_DATE  = 
ORIGINATOR     = 

OBJECT_NAME    = SL-16 R/B
OBJECT_ID      = 2000-006B
CENTER_NAME    = EARTH
REF_FRAME      = TEME
TIME_SYSTEM    = UTC
MEAN_ELEMENT_THEORY = SGP/SGP4

EPOCH          = 2025-10-29T14:23:48.693696
MEAN_MOTION    = 14.15795977
ECCENTRICITY   = .0015913
INCLINATION    = 71.0044
RA_OF_ASC_NODE = 13.4678
ARG_OF_PERICENTER = 13.5006
MEAN_ANOMALY   = 346.6540

EPHEMERIS_TYPE = 0
CLASSIFICATION_TYPE = U
NORAD_CAT_ID   = 26070
ELEMENT_SET_NO = 999
REV_AT_EPOCH   = 33000
BSTAR          = .18316651E-3
MEAN_MOTION_DOT = .313E-5
MEAN_MOTION_DDOT = 0

